[{"OBJECT_NAME":"QIANFAN-1","OBJECT_ID":"2024-140A","EPOCH":"2026-03-06T14:34:03.281088","MEAN_MOTION":13.50999771,"ECCENTRICITY":0.00169986,"INCLINATION":88.9714,"RA_OF_ASC_NODE":290.6057,"ARG_OF_PERICENTER":338.594,"MEAN_ANOMALY":21.4498,"EPHEMERIS_TYPE":0,"CLASSIFICATION_TYPE":"U","NORAD_CAT_ID":60379,"ELEMENT_SET_NO":999,"REV_AT_EPOCH":7867,"BSTAR":0.00015614942,"MEAN_MOTION_DOT":1.13e-6,"MEAN_MOTION_DDOT":0},{"OBJECT_NAME":"QIANFAN-2","OBJECT_ID":"2024-140B","EPOCH":"2026-03-06T13:28:46.011360","MEAN_MOTION":13.51003825,"ECCENTRICITY":0.00115273,"INCLINATION":88.97,"RA_OF_ASC_NODE":290.4381,"ARG_OF_PERICENTER":311.4521,"MEAN_ANOMALY":48.5639,"EPHEMERIS_TYPE":0,"CLASSIFICATION_TYPE":"U","NORAD_CAT_ID":60380,"ELEMENT_SET_NO":999,"REV_AT_EPOCH":7872,"BSTAR":0.00013235566,"MEAN_MOTION_DOT":9.7e-7,"MEAN_MOTION_DDOT":0},{"OBJECT_NAME":"QIANFAN-3","OBJECT_ID":"2024-140C","EPOCH":"2026-03-06T15:27:10.342080","MEAN_MOTION":13.50999857,"ECCENTRICITY":0.00129849,"INCLINATION":88.9693,"RA_OF_ASC_NODE":290.5558,"ARG_OF_PERICENTER":324.2012,"MEAN_ANOMALY":35.8267,"EPHEMERIS_TYPE":0,"CLASSIFICATION_TYPE":"U","NORAD_CAT_ID":60381,"ELEMENT_SET_NO":999,"REV_AT_EPOCH":7864,"BSTAR":0.0001559985,"MEAN_MOTION_DOT":1.13e-6,"MEAN_MOTION_DDOT":0},{"OBJECT_NAME":"QIANFAN-4","OBJECT_ID":"2024-140D","EPOCH":"2026-03-06T14:51:46.417536","MEAN_MOTION":13.51000216,"ECCENTRICITY":0.00118229,"INCLINATION":88.9717,"RA_OF_ASC_NODE":290.4772,"ARG_OF_PERICENTER":314.0151,"MEAN_ANOMALY":46.0025,"EPHEMERIS_TYPE":0,"CLASSIFICATION_TYPE":"U","NORAD_CAT_ID":60382,"ELEMENT_SET_NO":999,"REV_AT_EPOCH":7876,"BSTAR":0.00015519039,"MEAN_MOTION_DOT":1.12e-6,"MEAN_MOTION_DDOT":0},{"OBJECT_NAME":"QIANFAN-5","OBJECT_ID":"2024-140E","EPOCH":"2026-03-06T14:16:15.349440","MEAN_MOTION":13.51002133,"ECCENTRICITY":0.00145838,"INCLINATION":88.9692,"RA_OF_ASC_NODE":290.5862,"ARG_OF_PERICENTER":335.5445,"MEAN_ANOMALY":24.5013,"EPHEMERIS_TYPE":0,"CLASSIFICATION_TYPE":"U","NORAD_CAT_ID":60383,"ELEMENT_SET_NO":999,"REV_AT_EPOCH":7862,"BSTAR":0.00013142144,"MEAN_MOTION_DOT":9.7e-7,"MEAN_MOTION_DDOT":0},{"OBJECT_NAME":"QIANFAN-6","OBJECT_ID":"2024-140F","EPOCH":"2026-03-06T14:45:53.276544","MEAN_MOTION":13.5100197,"ECCENTRICITY":0.00120843,"INCLINATION":88.9719,"RA_OF_ASC_NODE":290.3528,"ARG_OF_PERICENTER":320.3745,"MEAN_ANOMALY":39.6522,"EPHEMERIS_TYPE":0,"CLASSIFICATION_TYPE":"U","NORAD_CAT_ID":60384,"ELEMENT_SET_NO":999,"REV_AT_EPOCH":7882,"BSTAR":0.00015063707,"MEAN_MOTION_DOT":1.09e-6,"MEAN_MOTION_DDOT":0},{"OBJECT_NAME":"QIANFAN-7","OBJECT_ID":"2024-140G","EPOCH":"2026-03-06T13:38:15.737280","MEAN_MOTION":14.27773064,"ECCENTRICITY":0.00166911,"INCLINATION":88.9731,"RA_OF_ASC_NODE":283.8771,"ARG_OF_PERICENTER":120.382,"MEAN_ANOMALY":239.9027,"EPHEMERIS_TYPE":0,"CLASSIFICATION_TYPE":"U","NORAD_CAT_ID":60385,"ELEMENT_SET_NO":999,"REV_AT_EPOCH":8235,"BSTAR":0.00015241373,"MEAN_MOTION_DOT":3.92e-6,"MEAN_MOTION_DDOT":0},{"OBJECT_NAME":"QIANFAN-8","OBJECT_ID":"2024-140H","EPOCH":"2026-03-06T14:57:43.202880","MEAN_MOTION":13.51003515,"ECCENTRICITY":0.00155883,"INCLINATION":88.972,"RA_OF_ASC_NODE":290.5908,"ARG_OF_PERICENTER":321.2104,"MEAN_ANOMALY":38.7927,"EPHEMERIS_TYPE":0,"CLASSIFICATION_TYPE":"U","NORAD_CAT_ID":60386,"ELEMENT_SET_NO":999,"REV_AT_EPOCH":7867,"BSTAR":0.00015417788,"MEAN_MOTION_DOT":1.12e-6,"MEAN_MOTION_DDOT":0},{"OBJECT_NAME":"QIANFAN-9","OBJECT_ID":"2024-140J","EPOCH":"2026-03-06T14:22:10.030944","MEAN_MOTION":13.50998261,"ECCENTRICITY":0.00152809,"INCLINATION":88.9719,"RA_OF_ASC_NODE":290.667,"ARG_OF_PERICENTER":321.1147,"MEAN_ANOMALY":38.8904,"EPHEMERIS_TYPE":0,"CLASSIFICATION_TYPE":"U","NORAD_CAT_ID":60387,"ELEMENT_SET_NO":999,"REV_AT_EPOCH":7865,"BSTAR":0.00014864848,"MEAN_MOTION_DOT":1.08e-6,"MEAN_MOTION_DDOT":0},{"OBJECT_NAME":"QIANFAN-10","OBJECT_ID":"2024-140K","EPOCH":"2026-03-06T14:27:55.579968","MEAN_MOTION":13.50996652,"ECCENTRICITY":0.00132032,"INCLINATION":88.9728,"RA_OF_ASC_NODE":290.0218,"ARG_OF_PERICENTER":297.0217,"MEAN_ANOMALY":62.9586,"EPHEMERIS_TYPE":0,"CLASSIFICATION_TYPE":"U","NORAD_CAT_ID":60388,"ELEMENT_SET_NO":999,"REV_AT_EPOCH":7878,"BSTAR":0.00014118842,"MEAN_MOTION_DOT":1.03e-6,"MEAN_MOTION_DDOT":0},{"OBJECT_NAME":"QIANFAN-11","OBJECT_ID":"2024-140L","EPOCH":"2026-03-06T15:21:26.985024","MEAN_MOTION":13.5100349,"ECCENTRICITY":0.0013299,"INCLINATION":88.9654,"RA_OF_ASC_NODE":290.5426,"ARG_OF_PERICENTER":321.4957,"MEAN_ANOMALY":38.5244,"EPHEMERIS_TYPE":0,"CLASSIFICATION_TYPE":"U","NORAD_CAT_ID":60389,"ELEMENT_SET_NO":999,"REV_AT_EPOCH":7844,"BSTAR":0.00014334875,"MEAN_MOTION_DOT":1.05e-6,"MEAN_MOTION_DDOT":0},{"OBJECT_NAME":"QIANFAN-12","OBJECT_ID":"2024-140M","EPOCH":"2026-03-06T14:04:25.909536","MEAN_MOTION":13.51001177,"ECCENTRICITY":0.00123787,"INCLINATION":88.9697,"RA_OF_ASC_NODE":290.6282,"ARG_OF_PERICENTER":330.9974,"MEAN_ANOMALY":29.0488,"EPHEMERIS_TYPE":0,"CLASSIFICATION_TYPE":"U","NORAD_CAT_ID":60390,"ELEMENT_SET_NO":999,"REV_AT_EPOCH":7856,"BSTAR":0.0001391684,"MEAN_MOTION_DOT":1.02e-6,"MEAN_MOTION_DDOT":0},{"OBJECT_NAME":"QIANFAN-13","OBJECT_ID":"2024-140N","EPOCH":"2026-03-06T15:09:34.116768","MEAN_MOTION":13.51001597,"ECCENTRICITY":0.00122722,"INCLINATION":88.971,"RA_OF_ASC_NODE":290.7337,"ARG_OF_PERICENTER":333.7954,"MEAN_ANOMALY":26.2575,"EPHEMERIS_TYPE":0,"CLASSIFICATION_TYPE":"U","NORAD_CAT_ID":60391,"ELEMENT_SET_NO":999,"REV_AT_EPOCH":7859,"BSTAR":0.00012710537,"MEAN_MOTION_DOT":9.4e-7,"MEAN_MOTION_DDOT":0},{"OBJECT_NAME":"QIANFAN-14","OBJECT_ID":"2024-140P","EPOCH":"2026-03-06T13:58:22.118880","MEAN_MOTION":13.51001472,"ECCENTRICITY":0.00159401,"INCLINATION":88.9688,"RA_OF_ASC_NODE":290.6186,"ARG_OF_PERICENTER":332.049,"MEAN_ANOMALY":27.9804,"EPHEMERIS_TYPE":0,"CLASSIFICATION_TYPE":"U","NORAD_CAT_ID":60392,"ELEMENT_SET_NO":999,"REV_AT_EPOCH":7859,"BSTAR":0.00015728566,"MEAN_MOTION_DOT":1.14e-6,"MEAN_MOTION_DDOT":0},{"OBJECT_NAME":"QIANFAN-15","OBJECT_ID":"2024-140Q","EPOCH":"2026-03-06T14:10:25.891680","MEAN_MOTION":13.50999311,"ECCENTRICITY":0.00113524,"INCLINATION":88.9712,"RA_OF_ASC_NODE":290.5941,"ARG_OF_PERICENTER":319.5016,"MEAN_ANOMALY":40.5289,"EPHEMERIS_TYPE":0,"CLASSIFICATION_TYPE":"U","NORAD_CAT_ID":60393,"ELEMENT_SET_NO":999,"REV_AT_EPOCH":7858,"BSTAR":0.00013175998,"MEAN_MOTION_DOT":9.7e-7,"MEAN_MOTION_DDOT":0},{"OBJECT_NAME":"QIANFAN-16","OBJECT_ID":"2024-140R","EPOCH":"2026-03-06T13:52:25.611744","MEAN_MOTION":13.50997959,"ECCENTRICITY":0.00140046,"INCLINATION":88.9715,"RA_OF_ASC_NODE":290.7181,"ARG_OF_PERICENTER":337.0341,"MEAN_ANOMALY":23.0183,"EPHEMERIS_TYPE":0,"CLASSIFICATION_TYPE":"U","NORAD_CAT_ID":60394,"ELEMENT_SET_NO":999,"REV_AT_EPOCH":7849,"BSTAR":0.00016089808,"MEAN_MOTION_DOT":1.16e-6,"MEAN_MOTION_DDOT":0},{"OBJECT_NAME":"QIANFAN-17","OBJECT_ID":"2024-140S","EPOCH":"2026-03-06T13:46:39.031968","MEAN_MOTION":13.51004639,"ECCENTRICITY":0.00142019,"INCLINATION":88.9726,"RA_OF_ASC_NODE":290.7736,"ARG_OF_PERICENTER":330.2454,"MEAN_ANOMALY":29.7888,"EPHEMERIS_TYPE":0,"CLASSIFICATION_TYPE":"U","NORAD_CAT_ID":60395,"ELEMENT_SET_NO":999,"REV_AT_EPOCH":7945,"BSTAR":0.0001474735,"MEAN_MOTION_DOT":1.07e-6,"MEAN_MOTION_DDOT":0}]
