QIANFAN-1               
1 60379U 24140A   26065.60698242  .00000113  00000+0  15615-3 0  9997
2 60379  88.9714 290.6057 0016998 338.5940  21.4498 13.50999771 78675
QIANFAN-2               
1 60380U 24140B   26065.56164365  .00000097  00000+0  13236-3 0  9996
2 60380  88.9700 290.4381 0011527 311.4521  48.5639 13.51003825 78728
QIANFAN-3               
1 60381U 24140C   26065.64386970  .00000113  00000+0  15600-3 0  9990
2 60381  88.9693 290.5558 0012984 324.2012  35.8267 13.50999857 78647
QIANFAN-4               
1 60382U 24140D   26065.61928724  .00000112  00000+0  15519-3 0  9995
2 60382  88.9717 290.4772 0011822 314.0151  46.0025 13.51000216 78765
QIANFAN-5               
1 60383U 24140E   26065.59462210  .00000097  00000+0  13142-3 0  9998
2 60383  88.9692 290.5862 0014583 335.5445  24.5013 13.51002133 78623
QIANFAN-6               
1 60384U 24140F   26065.61519996  .00000109  00000+0  15064-3 0  9995
2 60384  88.9719 290.3528 0012084 320.3745  39.6522 13.51001970 78822
QIANFAN-7               
1 60385U 24140G   26065.56823770  .00000392  00000+0  15241-3 0  9999
2 60385  88.9731 283.8771 0016691 120.3820 239.9027 14.27773064 82356
QIANFAN-8               
1 60386U 24140H   26065.62341670  .00000112  00000+0  15418-3 0  9997
2 60386  88.9720 290.5908 0015588 321.2104  38.7927 13.51003515 78670
QIANFAN-9               
1 60387U 24140J   26065.59872721  .00000108  00000+0  14865-3 0  9990
2 60387  88.9719 290.6670 0015280 321.1147  38.8904 13.50998261 78655
QIANFAN-10              
1 60388U 24140K   26065.60272662  .00000103  00000+0  14119-3 0  9998
2 60388  88.9728 290.0218 0013203 297.0217  62.9586 13.50996652 78780
QIANFAN-11              
1 60389U 24140L   26065.63989566  .00000105  00000+0  14335-3 0  9992
2 60389  88.9654 290.5426 0013299 321.4957  38.5244 13.51003490 78446
QIANFAN-12              
1 60390U 24140M   26065.58641099  .00000102  00000+0  13917-3 0  9996
2 60390  88.9697 290.6282 0012378 330.9974  29.0488 13.51001177 78565
QIANFAN-13              
1 60391U 24140N   26065.63164487  .00000094  00000+0  12711-3 0  9995
2 60391  88.9710 290.7337 0012272 333.7954  26.2575 13.51001597 78591
QIANFAN-14              
1 60392U 24140P   26065.58220045  .00000114  00000+0  15729-3 0  9998
2 60392  88.9688 290.6186 0015940 332.0490  27.9804 13.51001472 78594
QIANFAN-15              
1 60393U 24140Q   26065.59057745  .00000097  00000+0  13176-3 0  9999
2 60393  88.9712 290.5941 0011352 319.5016  40.5289 13.50999311 78582
QIANFAN-16              
1 60394U 24140R   26065.57807421  .00000116  00000+0  16090-3 0  9992
2 60394  88.9715 290.7181 0014004 337.0341  23.0183 13.50997959 78492
QIANFAN-17              
1 60395U 24140S   26065.57406287  .00000107  00000+0  14747-3 0  9995
2 60395  88.9726 290.7736 0014201 330.2454  29.7888 13.51004639 79457
